ONEWEB-0202             
1 48224U 21031Q   24035.72423291 -.00000036  00000+0 -13165-3 0  9990
2 48224  87.8953 101.5863 0002006  72.5888 287.5461 13.14502888134924
ONEWEB-0204             
1 48225U 21031R   24035.68218671 -.00000112  00000+0 -33605-3 0  9996
2 48225  87.8949 101.6070 0001843 115.5897 244.5423 13.14501540134810
ONEWEB-0205             
1 48226U 21031S   24035.73372815 -.00000111  00000+0 -33351-3 0  9991
2 48226  87.8951 101.5678 0001620  98.5098 261.6215 13.14500943134830
ONEWEB-0206             
1 48227U 21031T   24035.70676187  .00000345  00000+0  89676-3 0  9996
2 48227  87.8949 101.5658 0001584 102.6724 257.4583 13.14501804134780
ONEWEB-0182             
1 48228U 21031U   24035.70201294  .00000177  00000+0  44279-3 0  9993
2 48228  87.8951 101.5876 0001848 109.2216 250.9114 13.14502935134995
ONEWEB-0186             
1 48229U 21031V   24035.71311617  .00000188  00000+0  47328-3 0  9996
2 48229  87.8952 101.5508 0001836  96.9588 263.1751 13.14501354134942
ONEWEB-0181             
1 48230U 21031W   24035.69090768  .00000060  00000+0  12634-3 0  9997
2 48230  87.8949 101.6244 0001862  96.8033 263.3308 13.14502984134794
ONEWEB-0188             
1 48231U 21031X   24035.72896953 -.00000063  00000+0 -20504-3 0  9992
2 48231  87.8952 101.6138 0001771 100.8121 259.3208 13.14501091134707
